[{"OBJECT_NAME":"STARLINK-1569","OBJECT_ID":"2020-055N","EPOCH":"2026-03-10T00:00:02.999808","MEAN_MOTION":15.18469415,"ECCENTRICITY":0.00021467,"INCLINATION":53.1037,"RA_OF_ASC_NODE":124.869,"ARG_OF_PERICENTER":70.9863,"MEAN_ANOMALY":37.8804,"EPHEMERIS_TYPE":0,"CLASSIFICATION_TYPE":"U","NORAD_CAT_ID":46039,"ELEMENT_SET_NO":999,"REV_AT_EPOCH":579,"BSTAR":0.0056656927,"MEAN_MOTION_DOT":0.00119854,"MEAN_MOTION_DDOT":0},{"OBJECT_NAME":"TIANYI A","OBJECT_ID":"2025-103A","EPOCH":"2026-03-09T23:28:50.058624","MEAN_MOTION":15.19175591,"ECCENTRICITY":0.00016783,"INCLINATION":97.412,"RA_OF_ASC_NODE":143.3859,"ARG_OF_PERICENTER":88.7813,"MEAN_ANOMALY":271.3614,"EPHEMERIS_TYPE":0,"CLASSIFICATION_TYPE":"U","NORAD_CAT_ID":64048,"ELEMENT_SET_NO":999,"REV_AT_EPOCH":4501,"BSTAR":0.0001128032,"MEAN_MOTION_DOT":2.305e-5,"MEAN_MOTION_DDOT":0}]
